HST                     
1 20580U 90037B   26095.62622796  .00009304  00000+0  30389-3 0  9997
2 20580  28.4724 216.1877 0002248  70.2835 289.8004 15.29942321777445
POLAR                   
1 23802U 96013A   26094.86573831  .00000105  00000+0  00000+0 0  9990
2 23802  79.7826 227.8965 6396427 211.5804  85.5310  1.29845718143907
SWAS                    
1 25560U 98071A   26095.31539822  .00005643  00000+0  36127-3 0  9997
2 25560  69.8972  55.3666 0006232 333.5241  26.5603 15.09111126486272
CXO                     
1 25867U 99040B   26097.97612176  .00000867  00000+0  00000+0 0  9992
2 25867  55.0160 118.7490 7949841 310.6166   0.2827  0.37800804 17065
XMM-NEWTON              
1 25989U 99066A   26095.54798203  .00000069  00000+0  00000+0 0  9996
2 25989  64.8516 283.9204 4698499  66.1986   0.0494  0.50130994 22640
TERRA                   
1 25994U 99068A   26095.84506851  .00000598  00000+0  13084-3 0  9990
2 25994  97.9536 148.2346 0003673  95.9761  14.7792 14.61045872399047
CLUSTER II-FM7 (SAMBA)  
1 26410U 00041A   26090.03773165  .00002444  00000+0  00000+0 0  9999
2 26410 149.3581  38.1493 8953066 254.4502   0.4223  0.44796982 19968
CLUSTER II-FM8 (TANGO)  
1 26464U 00045B   26094.11120259  .00003194  00000+0  00000+0 0  9998
2 26464 149.6837  39.5667 8962149 255.7736   0.6086  0.44400104 19975
ODIN                    
1 26702U 01007A   26095.60418383  .00054902  00000+0  64048-3 0  9994
2 26702  97.4006 132.7992 0004379  83.9401 276.2355 15.61468513378037
TIMED                   
1 26998U 01055B   26095.88039045  .00002278  00000+0  21113-3 0  9993
2 26998  74.0712  20.5894 0002557 240.0721 120.0210 14.95125137320010
CORIOLIS                
1 27640U 03001A   26095.75870987  .00000185  00000+0  10763-3 0  9999
2 27640  98.7156 103.7432 0015041  63.9254 296.3469 14.19923976203945
SORCE                   
1 27651U 03004A   26095.87155467  .00003910  00000+0  29295-3 0  9995
2 27651  39.9913 314.1399 0018550 254.5581 105.3164 15.03321194261015
MOST                    
1 27843U 03031D   26095.77269828  .00000117  00000+0  73634-4 0  9997
2 27843  98.7077 104.5025 0010985 100.6115 259.6300 14.21307198180424
SCISAT 1                
1 27858U 03036A   26095.76436326  .00000999  00000+0  13245-3 0  9995
2 27858  73.9299 315.2320 0006471  27.4577 332.6940 14.81365037220725
SWIFT                   
1 28485U 04047A   26095.45740687  .00059130  00000+0  63617-3 0  9998
2 28485  20.5544  23.1109 0002954  14.1211 345.9316 15.61958526175456
HINODE (SOLAR-B)        
1 29479U 06041A   26095.75859092  .00001011  00000+0  18231-3 0  9999
2 29479  98.0602 112.9689 0018136 153.8415 206.3710 14.68521608 44244
SHIJIAN-6 02A (SJ-6 02A)
1 29505U 06046A   26095.84107373  .00006616  00000+0  34662-3 0  9994
2 29505  97.6444 136.3804 0004106  52.1252 308.0351 15.16135032 61307
